[{"OBJECT_NAME":"ONEWEB-0345","OBJECT_ID":"2021-083AB","EPOCH":"2026-01-26T06:26:55.789728","MEAN_MOTION":13.1346971,"ECCENTRICITY":0.00018448,"INCLINATION":87.9013,"RA_OF_ASC_NODE":348.4267,"ARG_OF_PERICENTER":94.5024,"MEAN_ANOMALY":265.6316,"EPHEMERIS_TYPE":0,"CLASSIFICATION_TYPE":"U","NORAD_CAT_ID":49211,"ELEMENT_SET_NO":999,"REV_AT_EPOCH":21227,"BSTAR":0.00021055932,"MEAN_MOTION_DOT":9.0e-7,"MEAN_MOTION_DDOT":0},{"OBJECT_NAME":"ONEWEB-0346","OBJECT_ID":"2021-083AC","EPOCH":"2026-01-25T21:03:12.994272","MEAN_MOTION":13.1869115,"ECCENTRICITY":0.0002525,"INCLINATION":87.9192,"RA_OF_ASC_NODE":3.7202,"ARG_OF_PERICENTER":80.9772,"MEAN_ANOMALY":279.1646,"EPHEMERIS_TYPE":0,"CLASSIFICATION_TYPE":"U","NORAD_CAT_ID":49212,"ELEMENT_SET_NO":999,"REV_AT_EPOCH":21122,"BSTAR":-0.0024551034,"MEAN_MOTION_DOT":-9.55e-6,"MEAN_MOTION_DDOT":0},{"OBJECT_NAME":"ONEWEB-0348","OBJECT_ID":"2021-083AD","EPOCH":"2026-01-26T07:08:16.592064","MEAN_MOTION":13.20771726,"ECCENTRICITY":0.0002202,"INCLINATION":87.9227,"RA_OF_ASC_NODE":302.7512,"ARG_OF_PERICENTER":84.5213,"MEAN_ANOMALY":275.6172,"EPHEMERIS_TYPE":0,"CLASSIFICATION_TYPE":"U","NORAD_CAT_ID":49213,"ELEMENT_SET_NO":999,"REV_AT_EPOCH":21808,"BSTAR":-3.0915973e-5,"MEAN_MOTION_DOT":0,"MEAN_MOTION_DDOT":0},{"OBJECT_NAME":"ONEWEB-0350","OBJECT_ID":"2021-083AE","EPOCH":"2026-01-26T06:40:21.450720","MEAN_MOTION":13.13470752,"ECCENTRICITY":0.00019378,"INCLINATION":87.9016,"RA_OF_ASC_NODE":348.4245,"ARG_OF_PERICENTER":89.8396,"MEAN_ANOMALY":270.2955,"EPHEMERIS_TYPE":0,"CLASSIFICATION_TYPE":"U","NORAD_CAT_ID":49214,"ELEMENT_SET_NO":999,"REV_AT_EPOCH":21230,"BSTAR":0.00047146092,"MEAN_MOTION_DOT":1.85e-6,"MEAN_MOTION_DDOT":0},{"OBJECT_NAME":"ONEWEB-0351","OBJECT_ID":"2021-083AF","EPOCH":"2026-01-26T06:58:59.947968","MEAN_MOTION":13.2077323,"ECCENTRICITY":9.133e-5,"INCLINATION":87.923,"RA_OF_ASC_NODE":302.7501,"ARG_OF_PERICENTER":88.4136,"MEAN_ANOMALY":271.7102,"EPHEMERIS_TYPE":0,"CLASSIFICATION_TYPE":"U","NORAD_CAT_ID":49215,"ELEMENT_SET_NO":999,"REV_AT_EPOCH":21804,"BSTAR":-0.0010294942,"MEAN_MOTION_DOT":-4.06e-6,"MEAN_MOTION_DDOT":0},{"OBJECT_NAME":"ONEWEB-0352","OBJECT_ID":"2021-083AG","EPOCH":"2026-01-26T04:22:37.442784","MEAN_MOTION":13.13469463,"ECCENTRICITY":0.00013892,"INCLINATION":87.9008,"RA_OF_ASC_NODE":348.4613,"ARG_OF_PERICENTER":85.9946,"MEAN_ANOMALY":274.1342,"EPHEMERIS_TYPE":0,"CLASSIFICATION_TYPE":"U","NORAD_CAT_ID":49216,"ELEMENT_SET_NO":999,"REV_AT_EPOCH":21238,"BSTAR":0.00072865831,"MEAN_MOTION_DOT":2.79e-6,"MEAN_MOTION_DDOT":0},{"OBJECT_NAME":"ONEWEB-0354","OBJECT_ID":"2021-083AH","EPOCH":"2026-01-26T07:35:33.300096","MEAN_MOTION":13.20773562,"ECCENTRICITY":0.00018961,"INCLINATION":87.9227,"RA_OF_ASC_NODE":302.7448,"ARG_OF_PERICENTER":84.3101,"MEAN_ANOMALY":275.8249,"EPHEMERIS_TYPE":0,"CLASSIFICATION_TYPE":"U","NORAD_CAT_ID":49217,"ELEMENT_SET_NO":999,"REV_AT_EPOCH":21808,"BSTAR":0.0001853447,"MEAN_MOTION_DOT":8.8e-7,"MEAN_MOTION_DDOT":0},{"OBJECT_NAME":"ONEWEB-0355","OBJECT_ID":"2021-083AJ","EPOCH":"2026-01-25T19:55:47.333280","MEAN_MOTION":13.13470503,"ECCENTRICITY":0.00016892,"INCLINATION":87.9004,"RA_OF_ASC_NODE":348.5443,"ARG_OF_PERICENTER":88.4164,"MEAN_ANOMALY":271.7159,"EPHEMERIS_TYPE":0,"CLASSIFICATION_TYPE":"U","NORAD_CAT_ID":49218,"ELEMENT_SET_NO":999,"REV_AT_EPOCH":21221,"BSTAR":-0.00032835828,"MEAN_MOTION_DOT":-1.07e-6,"MEAN_MOTION_DDOT":0},{"OBJECT_NAME":"ONEWEB-0357","OBJECT_ID":"2021-083AK","EPOCH":"2026-01-26T07:31:00.398784","MEAN_MOTION":13.20774424,"ECCENTRICITY":0.00014963,"INCLINATION":87.9227,"RA_OF_ASC_NODE":302.7407,"ARG_OF_PERICENTER":78.2265,"MEAN_ANOMALY":281.9036,"EPHEMERIS_TYPE":0,"CLASSIFICATION_TYPE":"U","NORAD_CAT_ID":49219,"ELEMENT_SET_NO":999,"REV_AT_EPOCH":21808,"BSTAR":0.00010846247,"MEAN_MOTION_DOT":5.7e-7,"MEAN_MOTION_DDOT":0},{"OBJECT_NAME":"ONEWEB-0332","OBJECT_ID":"2021-090A","EPOCH":"2026-01-26T06:12:54.473184","MEAN_MOTION":13.14502834,"ECCENTRICITY":0.00015214,"INCLINATION":87.9021,"RA_OF_ASC_NODE":318.0025,"ARG_OF_PERICENTER":71.9119,"MEAN_ANOMALY":288.2176,"EPHEMERIS_TYPE":0,"CLASSIFICATION_TYPE":"U","NORAD_CAT_ID":49279,"ELEMENT_SET_NO":999,"REV_AT_EPOCH":20893,"BSTAR":0.00073043523,"MEAN_MOTION_DOT":2.84e-6,"MEAN_MOTION_DDOT":0},{"OBJECT_NAME":"ONEWEB-0347","OBJECT_ID":"2021-090B","EPOCH":"2026-01-26T07:17:20.118912","MEAN_MOTION":13.20774836,"ECCENTRICITY":0.00016426,"INCLINATION":87.9222,"RA_OF_ASC_NODE":302.7514,"ARG_OF_PERICENTER":66.353,"MEAN_ANOMALY":293.7776,"EPHEMERIS_TYPE":0,"CLASSIFICATION_TYPE":"U","NORAD_CAT_ID":49280,"ELEMENT_SET_NO":999,"REV_AT_EPOCH":21231,"BSTAR":0.00015943204,"MEAN_MOTION_DOT":7.8e-7,"MEAN_MOTION_DDOT":0},{"OBJECT_NAME":"ONEWEB-0349","OBJECT_ID":"2021-090C","EPOCH":"2026-01-26T06:13:43.936320","MEAN_MOTION":13.20772837,"ECCENTRICITY":0.00016573,"INCLINATION":87.9231,"RA_OF_ASC_NODE":302.7596,"ARG_OF_PERICENTER":78.3549,"MEAN_ANOMALY":281.777,"EPHEMERIS_TYPE":0,"CLASSIFICATION_TYPE":"U","NORAD_CAT_ID":49281,"ELEMENT_SET_NO":999,"REV_AT_EPOCH":21109,"BSTAR":0.00034704699,"MEAN_MOTION_DOT":1.54e-6,"MEAN_MOTION_DDOT":0},{"OBJECT_NAME":"ONEWEB-0353","OBJECT_ID":"2021-090D","EPOCH":"2026-01-26T04:11:53.486304","MEAN_MOTION":13.14502873,"ECCENTRICITY":0.00015758,"INCLINATION":87.9031,"RA_OF_ASC_NODE":318.0095,"ARG_OF_PERICENTER":69.4642,"MEAN_ANOMALY":290.6656,"EPHEMERIS_TYPE":0,"CLASSIFICATION_TYPE":"U","NORAD_CAT_ID":49282,"ELEMENT_SET_NO":999,"REV_AT_EPOCH":20892,"BSTAR":0.0004070045,"MEAN_MOTION_DOT":1.64e-6,"MEAN_MOTION_DDOT":0},{"OBJECT_NAME":"ONEWEB-0356","OBJECT_ID":"2021-090E","EPOCH":"2026-01-26T04:22:23.118528","MEAN_MOTION":13.20773323,"ECCENTRICITY":0.00023663,"INCLINATION":87.9222,"RA_OF_ASC_NODE":302.7696,"ARG_OF_PERICENTER":63.2929,"MEAN_ANOMALY":296.8446,"EPHEMERIS_TYPE":0,"CLASSIFICATION_TYPE":"U","NORAD_CAT_ID":49283,"ELEMENT_SET_NO":999,"REV_AT_EPOCH":21108,"BSTAR":0.00028675812,"MEAN_MOTION_DOT":1.3e-6,"MEAN_MOTION_DDOT":0},{"OBJECT_NAME":"ONEWEB-0358","OBJECT_ID":"2021-090F","EPOCH":"2026-01-26T03:16:27.602112","MEAN_MOTION":13.2077291,"ECCENTRICITY":0.00018106,"INCLINATION":87.9228,"RA_OF_ASC_NODE":302.7798,"ARG_OF_PERICENTER":77.242,"MEAN_ANOMALY":282.8915,"EPHEMERIS_TYPE":0,"CLASSIFICATION_TYPE":"U","NORAD_CAT_ID":49284,"ELEMENT_SET_NO":999,"REV_AT_EPOCH":21180,"BSTAR":-1.2121195e-5,"MEAN_MOTION_DOT":8.0e-8,"MEAN_MOTION_DDOT":0},{"OBJECT_NAME":"ONEWEB-0359","OBJECT_ID":"2021-090G","EPOCH":"2026-01-26T06:50:05.573472","MEAN_MOTION":13.20773246,"ECCENTRICITY":0.00019488,"INCLINATION":87.9228,"RA_OF_ASC_NODE":302.748,"ARG_OF_PERICENTER":85.9962,"MEAN_ANOMALY":274.1395,"EPHEMERIS_TYPE":0,"CLASSIFICATION_TYPE":"U","NORAD_CAT_ID":49285,"ELEMENT_SET_NO":999,"REV_AT_EPOCH":21180,"BSTAR":8.3827462e-5,"MEAN_MOTION_DOT":4.7e-7,"MEAN_MOTION_DDOT":0},{"OBJECT_NAME":"ONEWEB-0360","OBJECT_ID":"2021-090H","EPOCH":"2026-01-26T06:36:26.782272","MEAN_MOTION":13.20774134,"ECCENTRICITY":0.00017213,"INCLINATION":87.9227,"RA_OF_ASC_NODE":302.7567,"ARG_OF_PERICENTER":80.9862,"MEAN_ANOMALY":279.1466,"EPHEMERIS_TYPE":0,"CLASSIFICATION_TYPE":"U","NORAD_CAT_ID":49286,"ELEMENT_SET_NO":999,"REV_AT_EPOCH":21111,"BSTAR":0.00014176039,"MEAN_MOTION_DOT":7.1e-7,"MEAN_MOTION_DDOT":0}]
