ONEWEB-0345             
1 49211U 21083AB  26026.26870127  .00000090  00000+0  21056-3 0  9995
2 49211  87.9013 348.4267 0001844  94.5024 265.6316 13.13469710212270
ONEWEB-0346             
1 49212U 21083AC  26025.87723373 -.00000955  00000+0 -24551-2 0  9996
2 49212  87.9192   3.7202 0002525  80.9772 279.1646 13.18691150211225
ONEWEB-0348             
1 49213U 21083AD  26026.29741426  .00000000  00000+0 -30916-4 0  9997
2 49213  87.9227 302.7512 0002202  84.5213 275.6172 13.20771726218080
ONEWEB-0350             
1 49214U 21083AE  26026.27802605  .00000185  00000+0  47146-3 0  9998
2 49214  87.9016 348.4245 0001937  89.8396 270.2955 13.13470752212307
ONEWEB-0351             
1 49215U 21083AF  26026.29097162 -.00000406  00000+0 -10295-2 0  9997
2 49215  87.9230 302.7501 0000913  88.4136 271.7102 13.20773230218046
ONEWEB-0352             
1 49216U 21083AG  26026.18237781  .00000279  00000+0  72866-3 0  9998
2 49216  87.9008 348.4613 0001389  85.9946 274.1342 13.13469463212386
ONEWEB-0354             
1 49217U 21083AH  26026.31635764  .00000088  00000+0  18534-3 0  9997
2 49217  87.9227 302.7448 0001896  84.3101 275.8249 13.20773562218081
ONEWEB-0355             
1 49218U 21083AJ  26025.83040895 -.00000107  00000+0 -32836-3 0  9994
2 49218  87.9004 348.5443 0001689  88.4164 271.7159 13.13470503212217
ONEWEB-0357             
1 49219U 21083AK  26026.31319906  .00000057  00000+0  10846-3 0  9990
2 49219  87.9227 302.7407 0001496  78.2265 281.9036 13.20774424218087
ONEWEB-0332             
1 49279U 21090A   26026.25896381  .00000284  00000+0  73044-3 0  9995
2 49279  87.9021 318.0025 0001521  71.9119 288.2176 13.14502834208933
ONEWEB-0347             
1 49280U 21090B   26026.30370508  .00000078  00000+0  15943-3 0  9996
2 49280  87.9222 302.7514 0001642  66.3530 293.7776 13.20774836212314
ONEWEB-0349             
1 49281U 21090C   26026.25953630  .00000154  00000+0  34705-3 0  9996
2 49281  87.9231 302.7596 0001657  78.3549 281.7770 13.20772837211098
ONEWEB-0353             
1 49282U 21090D   26026.17492461  .00000164  00000+0  40700-3 0  9991
2 49282  87.9031 318.0095 0001575  69.4642 290.6656 13.14502873208929
ONEWEB-0356             
1 49283U 21090E   26026.18221202  .00000130  00000+0  28676-3 0  9997
2 49283  87.9222 302.7696 0002366  63.2929 296.8446 13.20773323211081
ONEWEB-0358             
1 49284U 21090F   26026.13643058  .00000008  00000+0 -12121-4 0  9994
2 49284  87.9228 302.7798 0001810  77.2420 282.8915 13.20772910211802
ONEWEB-0359             
1 49285U 21090G   26026.28478673  .00000047  00000+0  83827-4 0  9993
2 49285  87.9228 302.7480 0001948  85.9962 274.1395 13.20773246211809
ONEWEB-0360             
1 49286U 21090H   26026.27530998  .00000071  00000+0  14176-3 0  9999
2 49286  87.9227 302.7567 0001721  80.9862 279.1466 13.20774134211113
